EAGLET-I                
1 43790U 18099AJ  26068.68676861  .00006017  00000+0  35262-3 0  9994
2 43790  97.4369 120.9821 0010486 336.8524  23.2233 15.12108144397298
STARLINK-4205           
1 53174U 22083AU  26068.55417252 -.00000250  00000+0  23826-5 0  9991
2 53174  53.2172 174.6696 0001581  62.3190 297.7963 15.08845019201194
